     2.11           N: GPS NAV DATA                         RINEX VERSION / TYPE
teqc  2019Feb25                         20221121 12:25:50UTCPGM / RUN BY / DATE
OSX ker:10.11.6|Core i5|gcc 4.3 -m64|OSX ker:10.10+|=+      COMMENT
    4.6566D-09  1.4901D-08 -5.9605D-08 -5.9605D-08          ION ALPHA
    7.7824D+04  4.9152D+04 -6.5536D+04 -3.2768D+05          ION BETA
   -6.519258022308D-09-2.220446049250D-14   233472     1543 DELTA-UTC: A0,A1,T,W
                                                            END OF HEADER
11 09  8  2 23 59 44.0-1.334585249424D-05-1.705302565824D-12 0.000000000000D+00
    5.000000000000D+00 5.906250000000D+00 6.798497470422D-09 7.713671668816D-01
    5.848705768585D-07 9.589729248546D-03 4.703179001808D-06 5.153683609009D+03
    8.638400000000D+04-7.450580596924D-09-1.865448636086D+00 1.061707735062D-07
    8.888172157190D-01 2.480937500000D+02 7.095675253413D-01-9.187882712194D-09
   -2.539391490134D-10 1.000000000000D+00 1.543000000000D+03 0.000000000000D+00
    2.000000000000D+00 0.000000000000D+00-1.164153218269D-08 5.000000000000D+00
    7.921800000000D+04 4.000000000000D+00
20 09  8  2 23 59 44.0 7.572816684842D-05-9.094947017729D-13 0.000000000000D+00
    2.000000000000D+00 5.090625000000D+01 4.711267671781D-09-1.089230611330D+00
    2.481043338776D-06 3.844438237138D-03 9.858980774879D-06 5.153803529739D+03
    8.638400000000D+04-4.097819328308D-08-6.262936215404D-01 8.381903171539D-08
    9.411503728850D-01 1.777187500000D+02 1.338155770462D+00-8.039977754488D-09
   -5.735953211189D-10 1.000000000000D+00 1.543000000000D+03 0.000000000000D+00
    2.000000000000D+00 0.000000000000D+00-6.519258022308D-09 2.000000000000D+00
    8.587800000000D+04 4.000000000000D+00
